STARS (KUKAI)           
1 33498U 09002G   26068.71826512  .00006351  00000+0  58664-3 0  9998
2 33498  98.1461  12.0831 0009772 130.4363 229.7710 14.94938540923614
STARLINK-34089          
1 64039U 25102T   26068.53263537  .00005056  00000+0  43099-3 0  9991
2 64039  70.0009 115.0499 0003357 269.0901  90.9874 14.98352565 45929
