[{"OBJECT_NAME":"STARS (KUKAI)","OBJECT_ID":"2009-002G","EPOCH":"2026-03-09T17:14:18.106368","MEAN_MOTION":14.9493854,"ECCENTRICITY":0.00097723,"INCLINATION":98.1461,"RA_OF_ASC_NODE":12.0831,"ARG_OF_PERICENTER":130.4363,"MEAN_ANOMALY":229.771,"EPHEMERIS_TYPE":0,"CLASSIFICATION_TYPE":"U","NORAD_CAT_ID":33498,"ELEMENT_SET_NO":999,"REV_AT_EPOCH":92361,"BSTAR":0.00058664337,"MEAN_MOTION_DOT":6.351e-5,"MEAN_MOTION_DDOT":0},{"OBJECT_NAME":"STARLINK-34089","OBJECT_ID":"2025-102T","EPOCH":"2026-03-09T12:46:59.695968","MEAN_MOTION":14.98352565,"ECCENTRICITY":0.00033576,"INCLINATION":70.0009,"RA_OF_ASC_NODE":115.0499,"ARG_OF_PERICENTER":269.0901,"MEAN_ANOMALY":90.9874,"EPHEMERIS_TYPE":0,"CLASSIFICATION_TYPE":"U","NORAD_CAT_ID":64039,"ELEMENT_SET_NO":999,"REV_AT_EPOCH":4592,"BSTAR":0.00043099448,"MEAN_MOTION_DOT":5.056e-5,"MEAN_MOTION_DDOT":0}]
